GSAT-10                 
1 38779U 12051B   26176.68398682 -.00000155  00000+0  00000+0 0  9995
2 38779   0.0610 259.6299 0008138 190.7160 152.7319  1.00272150 50189
INTELSAT 23 (IS-23)     
1 38867U 12057A   26176.51450705 -.00000275  00000+0  00000+0 0  9999
2 38867   0.0152  11.7546 0000120 150.4114 243.6979  1.00271894 50035
BEIDOU-2 G6             
1 38953U 12059A   26176.68398682 -.00000169  00000+0  00000+0 0  9992
2 38953   4.4435  73.4366 0009752 328.3512 202.3033  1.00271458 49998
LUCH-5B                 
1 38977U 12061A   26176.83102023 -.00000136  00000+0  00000+0 0  9994
2 38977  10.5026  49.7975 0002459 136.5618  10.5144  1.00272668 49696
YAMAL 300K              
1 38978U 12061B   26177.13156119  .00000000  00000+0  00000+0 0  9993
2 38978   0.0186   3.3607 0000460 235.5710 265.6601  1.00273404 49723
STAR ONE C3             
1 38991U 12062A   26176.51008703 -.00000239  00000+0  00000+0 0  9990
2 38991   0.0141  42.0875 0002542  61.1363 279.0622  1.00272407 49843
EUTELSAT 21B            
1 38992U 12062B   26176.81447794  .00000140  00000+0  00000+0 0  9991
2 38992   0.0650   3.2159 0002905  82.9890 142.5418  1.00271546 49910
ECHOSTAR 16             
1 39008U 12065A   26176.51277369 -.00000272  00000+0  00000+0 0  9996
2 39008   0.0182  13.4724 0002095  79.0784 304.1970  1.00271019 49722
ZHONGXING-12            
1 39017U 12067A   26176.68485348 -.00000196  00000+0  00000+0 0  9999
2 39017   0.0283 102.0977 0003143 343.6053 162.1488  1.00270742 49596
EUTELSAT 70B            
1 39020U 12069A   26176.82412376 -.00000033  00000+0  00000+0 0  9992
2 39020   0.0608 350.8690 0003488 104.1607 186.1263  1.00270398 49597
YAMAL 402               
1 39022U 12070A   26176.74975894  .00000095  00000+0  00000+0 0  9993
2 39022   1.2871  84.0666 0004073   9.1064 145.5288  1.00273721 49482
SKYNET 5D               
1 39034U 12075A   26176.74932559  .00000109  00000+0  00000+0 0  9998
2 39034   0.0680 343.8686 0004026 121.5738 131.0021  1.00275312 49240
MEXSAT 3                
1 39035U 12075B   26176.64479160 -.00000016  00000+0  00000+0 0  9990
2 39035   0.0186 322.2880 0001279 105.7866 323.0322  1.00276015  7132
TDRS 11                 
1 39070U 13004A   26176.79419707  .00000086  00000+0  00000+0 0  9995
2 39070   3.5331  31.3968 0005093  23.4469 330.5550  1.00272528 46773
AMAZONAS 3              
1 39078U 13006A   26176.58144470 -.00000272  00000+0  00000+0 0  9992
2 39078   0.0501 234.1012 0002541 257.9156 290.0032  1.00269460 44995
AZERSPACE 1             
1 39079U 13006B   26176.81924463  .00000143  00000+0  00000+0 0  9993
2 39079   0.0144 323.9321 0001893 159.0079 131.9376  1.00274561 48899
SBIRS GEO-2 (USA 241)   
1 39120U 13011A   26176.51511372 -.00000280  00000+0  00000+0 0  9997
2 39120   4.5069  52.5105 0002011  34.2805 322.5005  1.00271487 48611
EUTELSAT 117 WEST A     
1 39122U 13012A   26176.64427160 -.00000002  00000+0  00000+0 0  9997
2 39122   0.0318 297.8428 0002982 154.1765 296.9026  1.00270433 48513
ANIK G1                 
1 39127U 13014A   26176.64617825 -.00000064  00000+0  00000+0 0  9991
2 39127   0.0250 284.1598 0001903 166.6680 308.2650  1.00272542 48339
ZHONGXING-11            
1 39157U 13020A   26176.82958380 -.00000280  00000+0  00000+0 0  9995
2 39157   0.0196 312.1503 0002623 121.0134 237.3646  1.00272058 47987
EUTELSAT 7B             
1 39163U 13022A   26176.81153126  .00000058  00000+0  00000+0 0  9990
2 39163   0.0655   9.3487 0004380  32.8625 170.8714  1.00272546 48032
WGS F5 (USA 243)        
1 39168U 13024A   26176.51459372 -.00000274  00000+0  00000+0 0  9997
2 39168   0.0093 318.7694 0000389  92.6677 354.9578  1.00271620 47254
SES-6                   
1 39172U 13026A   26176.80218514 -.00000251  00000+0  00000+0 0  9992
2 39172   0.0168   7.8913 0002866  91.0440  63.2913  1.00271211 47816
IRNSS-1A                
1 39199U 13034A   26176.74993227  .00000048  00000+0  00000+0 0  9997
2 39199  35.7396  63.7472 0018407 178.4200 356.6391  1.00277689 47450
MUOS-2                  
1 39206U 13036A   26176.79975471 -.00000006  00000+0  00000+0 0  9999
2 39206   5.0118  45.5397 0051582 177.2756 151.0528  1.00274638 47279
ALPHASAT                
1 39215U 13038A   26176.81508462  .00000142  00000+0  00000+0 0  9996
2 39215   2.9986   1.3031 0002143 100.1461 130.8146  1.00272145 44101
INSAT-3D                
1 39216U 13038B   26176.83582382 -.00000330  00000+0  00000+0 0  9992
2 39216   1.9486  82.4432 0001124 359.9959 261.9459  1.00272276 47162
WGS F6 (USA 244)        
1 39222U 13041A   26176.64080491  .00000100  00000+0  00000+0 0  9990
2 39222   0.0175  13.6690 0000314  69.1883 286.4004  1.00269650 46149
ES'HAIL 1               
1 39233U 13044A   26176.81525794  .00000154  00000+0  00000+0 0  9993
2 39233   0.0484  11.5462 0002216  79.1655 142.1991  1.00273440 46717
GSAT-7                  
1 39234U 13044B   26176.82481711 -.00000066  00000+0  00000+0 0  9998
2 39234   0.1048  92.0408 0002647 188.7020   4.0985  1.00271775 45346
AMOS-4                  
1 39237U 13045A   26176.75175227  .00000000  00000+0  00000+0 0  9993
2 39237   0.0335  66.0672 0002266  12.8087 170.6350  1.00270848 47043
AEHF-3 (USA 246)        
1 39256U 13050A   26176.60702573  .00000034  00000+0  00000+0 0  9991
2 39256   5.3136  67.1075 0088001 188.0228 112.9175  1.00274692 45733
