OBJECT_NAME,OBJECT_ID,EPOCH,MEAN_MOTION,ECCENTRICITY,INCLINATION,RA_OF_ASC_NODE,ARG_OF_PERICENTER,MEAN_ANOMALY,EPHEMERIS_TYPE,CLASSIFICATION_TYPE,NORAD_CAT_ID,ELEMENT_SET_NO,REV_AT_EPOCH,BSTAR,MEAN_MOTION_DOT,MEAN_MOTION_DDOT
GSAT-10,2012-051B,2026-06-25T16:24:56.461248,1.00272150,.0008138,0.0610,259.6299,190.7160,152.7319,0,U,38779,999,5018,0,-.155E-5,0
INTELSAT 23 (IS-23),2012-057A,2026-06-25T12:20:53.409120,1.00271894,.000012,0.0152,11.7546,150.4114,243.6979,0,U,38867,999,5003,0,-.275E-5,0
BEIDOU-2 G6,2012-059A,2026-06-25T16:24:56.461248,1.00271458,.0009752,4.4435,73.4366,328.3512,202.3033,0,U,38953,999,4999,0,-.169E-5,0
LUCH-5B,2012-061A,2026-06-25T19:56:40.147872,1.00272668,.0002459,10.5026,49.7975,136.5618,10.5144,0,U,38977,999,4969,0,-.136E-5,0
YAMAL 300K,2012-061B,2026-06-26T03:09:26.886816,1.00273404,.000046,0.0186,3.3607,235.5710,265.6601,0,U,38978,999,4972,0,0,0
STAR ONE C3,2012-062A,2026-06-25T12:14:31.519392,1.00272407,.0002542,0.0141,42.0875,61.1363,279.0622,0,U,38991,999,4984,0,-.239E-5,0
EUTELSAT 21B,2012-062B,2026-06-25T19:32:50.894016,1.00271546,.0002905,0.0650,3.2159,82.9890,142.5418,0,U,38992,999,4991,0,.14E-5,0
ECHOSTAR 16,2012-065A,2026-06-25T12:18:23.646816,1.00271019,.0002095,0.0182,13.4724,79.0784,304.1970,0,U,39008,999,4972,0,-.272E-5,0
ZHONGXING-12,2012-067A,2026-06-25T16:26:11.340672,1.00270742,.0003143,0.0283,102.0977,343.6053,162.1488,0,U,39017,999,4959,0,-.196E-5,0
EUTELSAT 70B,2012-069A,2026-06-25T19:46:44.292864,1.00270398,.0003488,0.0608,350.8690,104.1607,186.1263,0,U,39020,999,4959,0,-.33E-6,0
YAMAL 402,2012-070A,2026-06-25T17:59:39.172416,1.00273721,.0004073,1.2871,84.0666,9.1064,145.5288,0,U,39022,999,4948,0,.95E-6,0
SKYNET 5D,2012-075A,2026-06-25T17:59:01.730976,1.00275312,.0004026,0.0680,343.8686,121.5738,131.0021,0,U,39034,999,4924,0,.109E-5,0
MEXSAT 3,2012-075B,2026-06-25T15:28:29.994240,1.00276015,.0001279,0.0186,322.2880,105.7866,323.0322,0,U,39035,999,713,0,-.16E-6,0
TDRS 11,2013-004A,2026-06-25T19:03:38.626848,1.00272528,.0005093,3.5331,31.3968,23.4469,330.5550,0,U,39070,999,4677,0,.86E-6,0
AMAZONAS 3,2013-006A,2026-06-25T13:57:16.822080,1.00269460,.0002541,0.0501,234.1012,257.9156,290.0032,0,U,39078,999,4499,0,-.272E-5,0
AZERSPACE 1,2013-006B,2026-06-25T19:39:42.736032,1.00274561,.0001893,0.0144,323.9321,159.0079,131.9376,0,U,39079,999,4889,0,.143E-5,0
SBIRS GEO-2 (USA 241),2013-011A,2026-06-25T12:21:45.825408,1.00271487,.0002011,4.5069,52.5105,34.2805,322.5005,0,U,39120,999,4861,0,-.28E-5,0
EUTELSAT 117 WEST A,2013-012A,2026-06-25T15:27:45.066240,1.00270433,.0002982,0.0318,297.8428,154.1765,296.9026,0,U,39122,999,4851,0,-.2E-7,0
ANIK G1,2013-014A,2026-06-25T15:30:29.800800,1.00272542,.0001903,0.0250,284.1598,166.6680,308.2650,0,U,39127,999,4833,0,-.64E-6,0
ZHONGXING-11,2013-020A,2026-06-25T19:54:36.040320,1.00272058,.0002623,0.0196,312.1503,121.0134,237.3646,0,U,39157,999,4798,0,-.28E-5,0
EUTELSAT 7B,2013-022A,2026-06-25T19:28:36.300864,1.00272546,.000438,0.0655,9.3487,32.8625,170.8714,0,U,39163,999,4803,0,.58E-6,0
WGS F5 (USA 243),2013-024A,2026-06-25T12:21:00.897408,1.00271620,.0000389,0.0093,318.7694,92.6677,354.9578,0,U,39168,999,4725,0,-.274E-5,0
SES-6,2013-026A,2026-06-25T19:15:08.796096,1.00271211,.0002866,0.0168,7.8913,91.0440,63.2913,0,U,39172,999,4781,0,-.251E-5,0
IRNSS-1A,2013-034A,2026-06-25T17:59:54.148128,1.00277689,.0018407,35.7396,63.7472,178.4200,356.6391,0,U,39199,999,4745,0,.48E-6,0
MUOS-2,2013-036A,2026-06-25T19:11:38.806944,1.00274638,.0051582,5.0118,45.5397,177.2756,151.0528,0,U,39206,999,4727,0,-.6E-7,0
ALPHASAT,2013-038A,2026-06-25T19:33:43.311168,1.00272145,.0002143,2.9986,1.3031,100.1461,130.8146,0,U,39215,999,4410,0,.142E-5,0
INSAT-3D,2013-038B,2026-06-25T20:03:35.178048,1.00272276,.0001124,1.9486,82.4432,359.9959,261.9459,0,U,39216,999,4716,0,-.33E-5,0
WGS F6 (USA 244),2013-041A,2026-06-25T15:22:45.544224,1.00269650,.0000314,0.0175,13.6690,69.1883,286.4004,0,U,39222,999,4614,0,.1E-5,0
ES'HAIL 1,2013-044A,2026-06-25T19:33:58.286016,1.00273440,.0002216,0.0484,11.5462,79.1655,142.1991,0,U,39233,999,4671,0,.154E-5,0
GSAT-7,2013-044B,2026-06-25T19:47:44.198304,1.00271775,.0002647,0.1048,92.0408,188.7020,4.0985,0,U,39234,999,4534,0,-.66E-6,0
AMOS-4,2013-045A,2026-06-25T18:02:31.396128,1.00270848,.0002266,0.0335,66.0672,12.8087,170.6350,0,U,39237,999,4704,0,0,0
AEHF-3 (USA 246),2013-050A,2026-06-25T14:34:07.023072,1.00274692,.0088001,5.3136,67.1075,188.0228,112.9175,0,U,39256,999,4573,0,.34E-6,0
